SOYUZ-MS 28             
1 66664U 25275A   26012.95096218  .00007414  00000+0  14125-3 0  9991
2 66664  51.6330 347.9568 0007716  11.8640 348.2529 15.49263082547695
1998-067XS              
1 66906U 98067XS  26013.09795923  .00017695  00000+0  29143-3 0  9992
2 66906  51.6320 346.6905 0002260   6.7222 353.3798 15.52406022  6481
1998-067XT              
1 66907U 98067XT  26013.17962447  .00055216  00000+0  77492-3 0  9990
2 66907  51.6317 345.7361 0003628  51.8232 308.3086 15.56178219  6506
1998-067XU              
1 66908U 98067XU  26013.17867306  .00054901  00000+0  77150-3 0  9990
2 66908  51.6303 345.7281 0003583  47.8604 312.2691 15.56145623  6500
SILVERSAT               
1 66909U 98067XV  26013.10672137  .00059389  00000+0  81263-3 0  9995
2 66909  51.6312 345.9984 0003871  57.7737 302.3630 15.56830043  6498
1998-067XW              
1 66910U 98067XW  26013.10781836  .00054051  00000+0  75066-3 0  9999
2 66910  51.6295 346.0040 0002672  32.6267 327.4889 15.56472827  6499
1998-067XX              
1 66911U 98067XX  26013.09387338  .00067773  00000+0  90003-3 0  9990
2 66911  51.6296 345.9116 0002770  50.7790 309.3448 15.57579857  6485
1998-067XY              
1 66912U 98067XY  26013.19682969  .00042907  00000+0  63633-3 0  9991
2 66912  51.6313 345.8500 0003432  35.4305 324.6913 15.54787478  6495
