CCSDS_OMM_VERS = 2.0
CREATION_DATE  = 
ORIGINATOR     = 

OBJECT_NAME    = SOYUZ-MS 28
OBJECT_ID      = 2025-275A
CENTER_NAME    = EARTH
REF_FRAME      = TEME
TIME_SYSTEM    = UTC
MEAN_ELEMENT_THEORY = SGP/SGP4

EPOCH          = 2026-01-12T22:49:23.132352
MEAN_MOTION    = 15.49263082
ECCENTRICITY   = .0007716
INCLINATION    = 51.6330
RA_OF_ASC_NODE = 347.9568
ARG_OF_PERICENTER = 11.8640
MEAN_ANOMALY   = 348.2529

EPHEMERIS_TYPE = 0
CLASSIFICATION_TYPE = U
NORAD_CAT_ID   = 66664
ELEMENT_SET_NO = 999
REV_AT_EPOCH   = 54769
BSTAR          = .14125E-3
MEAN_MOTION_DOT = .7414E-4
MEAN_MOTION_DDOT = 0

CCSDS_OMM_VERS = 2.0
CREATION_DATE  = 
ORIGINATOR     = 

OBJECT_NAME    = 1998-067XS
OBJECT_ID      = 1998-067XS
CENTER_NAME    = EARTH
REF_FRAME      = TEME
TIME_SYSTEM    = UTC
MEAN_ELEMENT_THEORY = SGP/SGP4

EPOCH          = 2026-01-13T02:21:03.677472
MEAN_MOTION    = 15.52406022
ECCENTRICITY   = .000226
INCLINATION    = 51.6320
RA_OF_ASC_NODE = 346.6905
ARG_OF_PERICENTER = 6.7222
MEAN_ANOMALY   = 353.3798

EPHEMERIS_TYPE = 0
CLASSIFICATION_TYPE = U
NORAD_CAT_ID   = 66906
ELEMENT_SET_NO = 999
REV_AT_EPOCH   = 648
BSTAR          = .29143E-3
MEAN_MOTION_DOT = .17695E-3
MEAN_MOTION_DDOT = 0

CCSDS_OMM_VERS = 2.0
CREATION_DATE  = 
ORIGINATOR     = 

OBJECT_NAME    = 1998-067XT
OBJECT_ID      = 1998-067XT
CENTER_NAME    = EARTH
REF_FRAME      = TEME
TIME_SYSTEM    = UTC
MEAN_ELEMENT_THEORY = SGP/SGP4

EPOCH          = 2026-01-13T04:18:39.554208
MEAN_MOTION    = 15.56178219
ECCENTRICITY   = .0003628
INCLINATION    = 51.6317
RA_OF_ASC_NODE = 345.7361
ARG_OF_PERICENTER = 51.8232
MEAN_ANOMALY   = 308.3086

EPHEMERIS_TYPE = 0
CLASSIFICATION_TYPE = U
NORAD_CAT_ID   = 66907
ELEMENT_SET_NO = 999
REV_AT_EPOCH   = 650
BSTAR          = .77492E-3
MEAN_MOTION_DOT = .55216E-3
MEAN_MOTION_DDOT = 0

CCSDS_OMM_VERS = 2.0
CREATION_DATE  = 
ORIGINATOR     = 

OBJECT_NAME    = 1998-067XU
OBJECT_ID      = 1998-067XU
CENTER_NAME    = EARTH
REF_FRAME      = TEME
TIME_SYSTEM    = UTC
MEAN_ELEMENT_THEORY = SGP/SGP4

EPOCH          = 2026-01-13T04:17:17.352384
MEAN_MOTION    = 15.56145623
ECCENTRICITY   = .0003583
INCLINATION    = 51.6303
RA_OF_ASC_NODE = 345.7281
ARG_OF_PERICENTER = 47.8604
MEAN_ANOMALY   = 312.2691

EPHEMERIS_TYPE = 0
CLASSIFICATION_TYPE = U
NORAD_CAT_ID   = 66908
ELEMENT_SET_NO = 999
REV_AT_EPOCH   = 650
BSTAR          = .7715E-3
MEAN_MOTION_DOT = .54901E-3
MEAN_MOTION_DDOT = 0

CCSDS_OMM_VERS = 2.0
CREATION_DATE  = 
ORIGINATOR     = 

OBJECT_NAME    = SILVERSAT
OBJECT_ID      = 1998-067XV
CENTER_NAME    = EARTH
REF_FRAME      = TEME
TIME_SYSTEM    = UTC
MEAN_ELEMENT_THEORY = SGP/SGP4

EPOCH          = 2026-01-13T02:33:40.726368
MEAN_MOTION    = 15.56830043
ECCENTRICITY   = .0003871
INCLINATION    = 51.6312
RA_OF_ASC_NODE = 345.9984
ARG_OF_PERICENTER = 57.7737
MEAN_ANOMALY   = 302.3630

EPHEMERIS_TYPE = 0
CLASSIFICATION_TYPE = U
NORAD_CAT_ID   = 66909
ELEMENT_SET_NO = 999
REV_AT_EPOCH   = 649
BSTAR          = .81263E-3
MEAN_MOTION_DOT = .59389E-3
MEAN_MOTION_DDOT = 0

CCSDS_OMM_VERS = 2.0
CREATION_DATE  = 
ORIGINATOR     = 

OBJECT_NAME    = 1998-067XW
OBJECT_ID      = 1998-067XW
CENTER_NAME    = EARTH
REF_FRAME      = TEME
TIME_SYSTEM    = UTC
MEAN_ELEMENT_THEORY = SGP/SGP4

EPOCH          = 2026-01-13T02:35:15.506304
MEAN_MOTION    = 15.56472827
ECCENTRICITY   = .0002672
INCLINATION    = 51.6295
RA_OF_ASC_NODE = 346.0040
ARG_OF_PERICENTER = 32.6267
MEAN_ANOMALY   = 327.4889

EPHEMERIS_TYPE = 0
CLASSIFICATION_TYPE = U
NORAD_CAT_ID   = 66910
ELEMENT_SET_NO = 999
REV_AT_EPOCH   = 649
BSTAR          = .75066E-3
MEAN_MOTION_DOT = .54051E-3
MEAN_MOTION_DDOT = 0

CCSDS_OMM_VERS = 2.0
CREATION_DATE  = 
ORIGINATOR     = 

OBJECT_NAME    = 1998-067XX
OBJECT_ID      = 1998-067XX
CENTER_NAME    = EARTH
REF_FRAME      = TEME
TIME_SYSTEM    = UTC
MEAN_ELEMENT_THEORY = SGP/SGP4

EPOCH          = 2026-01-13T02:15:10.660032
MEAN_MOTION    = 15.57579857
ECCENTRICITY   = .000277
INCLINATION    = 51.6296
RA_OF_ASC_NODE = 345.9116
ARG_OF_PERICENTER = 50.7790
MEAN_ANOMALY   = 309.3448

EPHEMERIS_TYPE = 0
CLASSIFICATION_TYPE = U
NORAD_CAT_ID   = 66911
ELEMENT_SET_NO = 999
REV_AT_EPOCH   = 648
BSTAR          = .90003E-3
MEAN_MOTION_DOT = .67773E-3
MEAN_MOTION_DDOT = 0

CCSDS_OMM_VERS = 2.0
CREATION_DATE  = 
ORIGINATOR     = 

OBJECT_NAME    = 1998-067XY
OBJECT_ID      = 1998-067XY
CENTER_NAME    = EARTH
REF_FRAME      = TEME
TIME_SYSTEM    = UTC
MEAN_ELEMENT_THEORY = SGP/SGP4

EPOCH          = 2026-01-13T04:43:26.085216
MEAN_MOTION    = 15.54787478
ECCENTRICITY   = .0003432
INCLINATION    = 51.6313
RA_OF_ASC_NODE = 345.8500
ARG_OF_PERICENTER = 35.4305
MEAN_ANOMALY   = 324.6913

EPHEMERIS_TYPE = 0
CLASSIFICATION_TYPE = U
NORAD_CAT_ID   = 66912
ELEMENT_SET_NO = 999
REV_AT_EPOCH   = 649
BSTAR          = .63633E-3
MEAN_MOTION_DOT = .42907E-3
MEAN_MOTION_DDOT = 0

